{
  "type": "FeatureCollection",
  "features": [
    {
      "type": "Feature",
      "properties": {
        "name": "start",
        "description": "Araç başlangıç konumu",
        "nokta_id": 0,
        "yaw": 0.0
      },
      "geometry": {
        "type": "Point",
        "coordinates": [29.509014, 40.790343]
      }
    },
    {
      "type": "Feature",
      "properties": {
        "name": "park_giris",
        "description": "Araç otopark giriş bölgesi noktası",
        "nokta_id": 1,
        "yaw": 0.0
      },
      "geometry": {
        "type": "Point",
        "coordinates": [29.509223, 40.790149]
      }
    }
  ]
}